NORAD_CAT_ID,OBJECT_NAME,OBJECT_TYPE,EPOCH,MEAN_MOTION,ECCENTRICITY,INCLINATION,RA_OF_ASC_NODE,ARG_OF_PERICENTER,MEAN_ANOMALY,BSTAR,MEAN_MOTION_DOT,MEAN_MOTION_DDOT,TLE_LINE0,TLE_LINE1,TLE_LINE2,SEMIMAJOR_AXIS,PERIOD,APOGEE,PERIGEE,DECAYED
54811.0,STARLINK-5424,PAYLOAD,2023-08-17 18:48:08,15.08835806,0.000156,53.215,260.8433,84.6497,275.4673,-3.9792e-05,-9.21e-06,0.0,0 STARLINK-5424,1 54811U 22175BF  23229.78342603 -.00000921  00000-0 -39792-4 0  9995,2 54811  53.2150 260.8433 0001560  84.6497 275.4673 15.08835806 36909,6917.893,95.438,540.837,538.679,0.0
54811.0,STARLINK-5424,PAYLOAD,2023-08-19 01:00:28,15.08829436,0.000145,53.2139,255.1944,85.5037,274.6121,-6.2702e-05,-1.285e-05,0.0,0 STARLINK-5424,1 54811U 22175BF  23231.04199227 -.00001285  00000-0 -62702-4 0  9990,2 54811  53.2139 255.1944 0001450  85.5037 274.6121 15.08829436 37090,6917.913,95.438,540.781,538.775,0.0
54811.0,STARLINK-5424,PAYLOAD,2023-08-20 08:48:11,15.08837868,0.00015,53.2145,249.2468,87.5671,272.5493,0.00015652,2.204e-05,0.0,0 STARLINK-5424,1 54811U 22175BF  23232.36679732  .00002204  00000-0  15652-3 0  9991,2 54811  53.2145 249.2468 0001500  87.5671 272.5493 15.08837868 37293,6917.887,95.438,540.79,538.714,0.0
54811.0,STARLINK-5424,PAYLOAD,2023-08-21 08:38:57,15.08849795,0.0001406,53.2139,244.7858,96.3734,263.7418,0.00034395,5.192e-05,0.0,0 STARLINK-5424,1 54811U 22175BF  23233.36039331  .00005192  00000-0  34395-3 0  9991,2 54811  53.2139 244.7858 0001406  96.3734 263.7418 15.08849795 37440,6917.85,95.437,540.688,538.743,0.0
54811.0,STARLINK-5424,PAYLOAD,2023-08-22 00:32:49,15.08849673,0.0001538,53.2135,241.8132,85.0698,275.047,0.0002139,3.119e-05,0.0,0 STARLINK-5424,1 54811U 22175BF  23234.02279198  .00003119  00000-0  21390-3 0  9990,2 54811  53.2135 241.8132 0001538  85.0698 275.0470 15.08849673 37549,6917.851,95.437,540.78,538.652,0.0
54811.0,STARLINK-5424,PAYLOAD,2023-08-23 11:31:18,15.08844685,0.0001549,53.2145,235.2703,90.4764,269.6405,2.2991e-05,7.8e-07,0.0,0 STARLINK-5424,1 54811U 22175BF  23235.48006947  .00000078  00000-0  22991-4 0  9991,2 54811  53.2145 235.2703 0001549  90.4764 269.6405 15.08844685 37766,6917.866,95.437,540.803,538.659,0.0
54811.0,STARLINK-5424,PAYLOAD,2023-08-24 09:46:42,15.08837678,0.0001468,53.2153,231.1063,100.5943,259.5214,2.9786e-06,-2.41e-06,0.0,0 STARLINK-5424,1 54811U 22175BF  23236.40743502 -.00000241  00000-0  29786-5 0  9992,2 54811  53.2153 231.1063 0001468 100.5943 259.5214 15.08837678 40068,6917.887,95.438,540.768,538.737,0.0
54811.0,STARLINK-5424,PAYLOAD,2023-08-25 09:37:29,15.08843707,0.0001483,53.2154,226.6465,92.4186,267.6976,8.7888e-05,1.111e-05,0.0,0 STARLINK-5424,1 54811U 22175BF  23237.40103029  .00001111  00000-0  87888-4 0  9999,2 54811  53.2154 226.6465 0001483  92.4186 267.6976 15.08843707 38050,6917.869,95.437,540.76,538.708,0.0
54811.0,STARLINK-5424,PAYLOAD,2023-08-26 01:31:21,15.0883512,0.0001433,53.2151,223.6728,92.1061,268.0095,5.7586e-05,6.29e-06,0.0,0 STARLINK-5424,1 54811U 22175BF  23238.06343824  .00000629  00000-0  57586-4 0  9996,2 54811  53.2151 223.6728 0001433  92.1061 268.0095 15.08835120 38158,6917.895,95.438,540.752,538.769,0.0
54811.0,STARLINK-5424,PAYLOAD,2023-08-26 07:52:53,15.08840194,0.0001437,53.2153,222.4834,92.2173,267.8983,9.1846e-05,1.174e-05,0.0,0 STARLINK-5424,1 54811U 22175BF  23238.32839448  .00001174  00000-0  91846-4 0  9990,2 54811  53.2153 222.4834 0001437  92.2173 267.8983 15.08840194 40359,6917.88,95.438,540.739,538.751,0.0
54811.0,STARLINK-5424,PAYLOAD,2023-08-27 02:57:31,15.08837241,0.0001498,53.2165,218.9162,97.8957,262.2205,1.8775e-05,1.1e-07,0.0,0 STARLINK-5424,1 54811U 22175BF  23239.12327973  .00000011  00000-0  18775-4 0  9993,2 54811  53.2165 218.9162 0001498  97.8957 262.2205 15.08837241 38312,6917.889,95.438,540.79,538.718,0.0
54811.0,STARLINK-5424,PAYLOAD,2023-08-27 07:43:40,15.08840385,0.0001386,53.2157,218.0232,89.923,270.1921,5.3182e-05,5.59e-06,0.0,0 STARLINK-5424,1 54811U 22175BF  23239.32199706  .00000559  00000-0  53182-4 0  9994,2 54811  53.2157 218.0232 0001386  89.9230 270.1921 15.08840385 40504,6917.879,95.438,540.703,538.785,0.0
54811.0,STARLINK-5424,PAYLOAD,2023-08-28 05:59:04,15.08841614,0.0001417,53.2156,213.8597,90.7196,269.3958,4.6023e-05,4.45e-06,0.0,0 STARLINK-5424,1 54811U 22175BF  23240.24935708  .00000445  00000-0  46023-4 0  9997,2 54811  53.2156 213.8597 0001417  90.7196 269.3958 15.08841614 38486,6917.875,95.437,540.721,538.76,0.0
54811.0,STARLINK-5424,PAYLOAD,2023-08-28 21:52:56,15.08835091,0.0001404,53.2155,210.8841,90.2988,269.8165,3.9433e-05,3.4e-06,0.0,0 STARLINK-5424,1 54811U 22175BF  23240.91176207  .00000340  00000-0  39433-4 0  9993,2 54811  53.2155 210.8841 0001404  90.2988 269.8165 15.08835091 40743,6917.895,95.438,540.732,538.789,0.0
54811.0,STARLINK-5424,PAYLOAD,2023-08-29 01:03:42,15.08835669,0.0001492,53.2158,210.2916,91.6425,268.4738,6.1574e-05,6.92e-06,0.0,0 STARLINK-5424,1 54811U 22175BF  23241.04424143  .00000692  00000-0  61574-4 0  9994,2 54811  53.2158 210.2916 0001492  91.6425 268.4738 15.08835669 38605,6917.894,95.438,540.791,538.726,0.0
54811.0,STARLINK-5424,PAYLOAD,2023-08-29 07:25:14,15.08840695,0.000143,53.2156,209.1003,89.5732,270.5424,9.9365e-05,1.294e-05,0.0,0 STARLINK-5424,1 54811U 22175BF  23241.30919740  .00001294  00000-0  99365-4 0  9993,2 54811  53.2156 209.1003 0001430  89.5732 270.5424 15.08840695 40802,6917.878,95.438,540.733,538.754,0.0
54811.0,STARLINK-5424,PAYLOAD,2023-08-30 04:05:15,15.08841767,0.0001337,53.2154,205.2356,89.9898,270.1247,2.2435e-05,6.9e-07,0.0,0 STARLINK-5424,1 54811U 22175BF  23242.17031995  .00000069  00000-0  22435-4 0  9999,2 54811  53.2154 205.2356 0001337  89.9898 270.1247 15.08841767 38774,6917.875,95.437,540.665,538.815,0.0
54811.0,STARLINK-5424,PAYLOAD,2023-08-30 15:12:59,15.08805586,8.7e-05,53.2163,203.1546,99.4291,260.68,-0.00028794,-4.863e-05,0.0,0 STARLINK-5424,1 54811U 22175BF  23242.63402733 -.00004863  00000-0 -28794-3 0  9993,2 54811  53.2163 203.1546 0000870  99.4291 260.6800 15.08805586 38842,6917.986,95.44,540.452,539.249,0.0
54811.0,STARLINK-5424,PAYLOAD,2023-08-31 00:45:16,15.08839853,0.0001484,53.215,201.3699,86.7844,273.3318,3.5877e-05,2.83e-06,0.0,0 STARLINK-5424,1 54811U 22175BF  23243.03144146  .00000283  00000-0  35877-4 0  9990,2 54811  53.2150 201.3699 0001484  86.7844 273.3318 15.08839853 38908,6917.881,95.438,540.772,538.719,0.0
54811.0,STARLINK-5424,PAYLOAD,2023-08-31 21:25:17,15.08835959,0.0001555,53.2183,197.506,89.5965,270.5205,3.7455e-05,3.08e-06,0.0,0 STARLINK-5424,1 54811U 22175BF  23243.89256429  .00000308  00000-0  37455-4 0  9994,2 54811  53.2183 197.5060 0001555  89.5965 270.5205 15.08835959 41198,6917.893,95.438,540.833,538.682,0.0
54811.0,STARLINK-5424,PAYLOAD,2023-09-01 06:57:35,15.08852874,0.0001291,53.2166,195.7218,85.4489,274.6651,-0.00012136,-2.22e-05,0.0,0 STARLINK-5424,1 54811U 22175BF  23244.28999909 -.00002220  00000-0 -12136-3 0  9990,2 54811  53.2166 195.7218 0001291  85.4489 274.6651 15.08852874 39098,6917.841,95.437,540.599,538.813,0.0
54811.0,STARLINK-5424,PAYLOAD,2023-09-01 13:19:08,15.08843645,0.0001329,53.2168,194.5304,85.5579,274.5565,-3.1957e-05,-7.97e-06,0.0,0 STARLINK-5424,1 54811U 22175BF  23244.55496200 -.00000797  00000-0 -31957-4 0  9996,2 54811  53.2168 194.5304 0001329  85.5579 274.5565 15.08843645 41290,6917.869,95.437,540.654,538.815,0.0
54811.0,STARLINK-5424,PAYLOAD,2023-09-01 19:40:41,15.08840642,0.0001331,53.2152,193.3401,90.7636,269.3509,6.5281e-05,7.51e-06,0.0,0 STARLINK-5424,1 54811U 22175BF  23244.81992253  .00000751  00000-0  65281-4 0  9999,2 54811  53.2152 193.3401 0001331  90.7636 269.3509 15.08840642 39171,6917.878,95.438,540.664,538.823,0.0
54811.0,STARLINK-5424,PAYLOAD,2023-09-02 05:12:59,15.08850103,0.0001348,53.2158,191.5567,92.7244,267.3903,0.00015663,2.206e-05,0.0,0 STARLINK-5424,1 54811U 22175BF  23245.21735379  .00002206  00000-0  15663-3 0  9993,2 54811  53.2158 191.5567 0001348  92.7244 267.3903 15.08850103 39231,6917.85,95.437,540.647,538.782,0.0
54811.0,STARLINK-5424,PAYLOAD,2023-09-02 19:31:27,15.08848383,0.0001405,53.2166,188.8798,86.72,273.3953,0.0001365,1.886e-05,0.0,0 STARLINK-5424,1 54811U 22175BF  23245.81351484  .00001886  00000-0  13650-3 0  9997,2 54811  53.2166 188.8798 0001405  86.7200 273.3953 15.08848383 41483,6917.855,95.437,540.692,538.748,0.0
54811.0,STARLINK-5424,PAYLOAD,2023-09-03 03:28:23,15.08850424,0.0001445,53.2166,187.393,85.9071,274.2086,0.00014077,1.954e-05,0.0,0 STARLINK-5424,1 54811U 22175BF  23246.14471175  .00001954  00000-0  14077-3 0  9994,2 54811  53.2166 187.3930 0001445  85.9071 274.2086 15.08850424 39377,6917.849,95.437,540.713,538.714,0.0
54811.0,STARLINK-5424,PAYLOAD,2023-09-03 13:00:43,15.08828204,0.0001515,53.2163,185.6094,92.8867,267.2298,-4.4571e-05,-9.97e-06,0.0,0 STARLINK-5424,1 54811U 22175BF  23246.54217049 -.00000997  00000-0 -44571-4 0  9997,2 54811  53.2163 185.6094 0001515  92.8867 267.2298 15.08828204 41599,6917.916,95.438,540.83,538.733,0.0
54811.0,STARLINK-5424,PAYLOAD,2023-09-04 04:54:35,15.0883154,0.0001653,53.217,182.6369,96.6401,263.4779,-8.7839e-05,-1.685e-05,0.0,0 STARLINK-5424,1 54811U 22175BF  23247.20457349 -.00001685  00000-0 -87839-4 0  9999,2 54811  53.2170 182.6369 0001653  96.6401 263.4779 15.08831540 41698,6917.906,95.438,540.915,538.628,0.0
54811.0,STARLINK-5424,PAYLOAD,2023-09-04 23:59:12,15.08841816,0.0001677,53.2172,179.0678,95.308,264.8103,3.5119e-05,2.71e-06,0.0,0 STARLINK-5424,1 54811U 22175BF  23247.99944625  .00000271  00000-0  35119-4 0  9995,2 54811  53.2172 179.0678 0001677  95.3080 264.8103 15.08841816 39654,6917.875,95.437,540.9,538.58,0.0
54811.0,STARLINK-5424,PAYLOAD,2023-09-06 01:25:22,15.08837516,0.0001683,53.2173,174.3103,101.0345,259.0836,0.00028208,4.204e-05,0.0,0 STARLINK-5424,1 54811U 22175BF  23249.05928772  .00004204  00000-0  28208-3 0  9999,2 54811  53.2173 174.3103 0001683 101.0345 259.0836 15.08837516 39811,6917.888,95.438,540.917,538.589,0.0
